SHIYAN-1 (SY-1)         
1 28220U 04012A   26068.73650539  .00016393  00000+0  54854-3 0  9991
2 28220  97.8764 140.5238 0005873  23.6952 336.4557 15.31043463195862
STARLINK-30714          
1 57939U 23148E   26068.26817326 -.00000932  00000+0 -19342-4 0  9996
2 57939  53.1611  26.4425 0001068  87.7795 272.3328 15.30192407138352
